[{"OBJECT_NAME":"STARLINK-30521","OBJECT_ID":"2023-151C","EPOCH":"2026-03-09T03:09:39.578112","MEAN_MOTION":15.27587305,"ECCENTRICITY":0.00020162,"INCLINATION":43.0018,"RA_OF_ASC_NODE":338.9336,"ARG_OF_PERICENTER":248.1219,"MEAN_ANOMALY":111.9418,"EPHEMERIS_TYPE":0,"CLASSIFICATION_TYPE":"U","NORAD_CAT_ID":57966,"ELEMENT_SET_NO":999,"REV_AT_EPOCH":13568,"BSTAR":-0.00016835112,"MEAN_MOTION_DOT":-4.893e-5,"MEAN_MOTION_DDOT":0},{"OBJECT_NAME":"XCUBE-1","OBJECT_ID":"2024-247Z","EPOCH":"2026-03-09T11:35:28.885344","MEAN_MOTION":15.27910558,"ECCENTRICITY":0.00052355,"INCLINATION":44.9938,"RA_OF_ASC_NODE":117.7807,"ARG_OF_PERICENTER":331.1499,"MEAN_ANOMALY":28.9094,"EPHEMERIS_TYPE":0,"CLASSIFICATION_TYPE":"U","NORAD_CAT_ID":62400,"ELEMENT_SET_NO":999,"REV_AT_EPOCH":6770,"BSTAR":0.00036224252,"MEAN_MOTION_DOT":9.773e-5,"MEAN_MOTION_DDOT":0}]
